NORAD_CAT_ID,OBJECT_NAME,OBJECT_TYPE,EPOCH,MEAN_MOTION,ECCENTRICITY,INCLINATION,RA_OF_ASC_NODE,ARG_OF_PERICENTER,MEAN_ANOMALY,BSTAR,MEAN_MOTION_DOT,MEAN_MOTION_DDOT,TLE_LINE0,TLE_LINE1,TLE_LINE2,SEMIMAJOR_AXIS,PERIOD,APOGEE,PERIGEE,DECAYED
55292.0,STARLINK-5325,PAYLOAD,2024-06-16 10:20:06,14.98331325,0.0003568,69.9983,176.0425,268.2062,91.8688,4.2781e-05,4.17e-06,0.0,0 STARLINK-5325,1 55292U 23010Z   24168.43063381  .00000417  00000-0  42781-4 0  9996,2 55292  69.9983 176.0425 0003568 268.2062  91.8688 14.98331325 78714,6950.189,96.107,574.534,569.574,0.0
55292.0,STARLINK-5325,PAYLOAD,2024-06-17 10:22:07,14.98332328,0.0003568,69.9982,173.5178,268.2842,91.7909,2.9649e-05,2.61e-06,0.0,0 STARLINK-5325,1 55292U 23010Z   24169.43203361  .00000261  00000-0  29649-4 0  9996,2 55292  69.9982 173.5178 0003568 268.2842  91.7909 14.98332328 78861,6950.186,96.107,574.531,569.571,0.0
55292.0,STARLINK-5325,PAYLOAD,2024-06-18 05:35:44,14.98331744,0.0003559,69.9982,171.4978,268.2793,91.7959,3.7444e-05,3.54e-06,0.0,0 STARLINK-5325,1 55292U 23010Z   24170.23315221  .00000354  00000-0  37444-4 0  9990,2 55292  69.9982 171.4978 0003559 268.2793  91.7959 14.98331744 78676,6950.187,96.107,574.526,569.579,0.0
55292.0,STARLINK-5325,PAYLOAD,2024-06-18 10:24:08,14.98333124,0.0003551,69.9982,170.9929,268.233,91.8423,4.3192e-05,4.22e-06,0.0,0 STARLINK-5325,1 55292U 23010Z   24170.43343088  .00000422  00000-0  43192-4 0  9997,2 55292  69.9982 170.9929 0003551 268.2330  91.8423 14.98333124 79015,6950.183,96.107,574.516,569.58,0.0
55292.0,STARLINK-5325,PAYLOAD,2024-06-18 16:48:40,14.98330299,0.0003539,69.9983,170.3195,268.625,91.4503,1.981e-05,1.43e-06,0.0,0 STARLINK-5325,1 55292U 23010Z   24170.70047283  .00000143  00000-0  19810-4 0  9995,2 55292  69.9983 170.3195 0003539 268.6250  91.4503 14.98330299 79055,6950.192,96.107,574.517,569.597,0.0
55292.0,STARLINK-5325,PAYLOAD,2024-06-19 05:37:45,14.9832905,0.0003506,69.9985,168.9729,269.3287,90.747,1.6599e-05,1.05e-06,0.0,0 STARLINK-5325,1 55292U 23010Z   24171.23455370  .00000105  00000-0  16599-4 0  9993,2 55292  69.9985 168.9729 0003506 269.3287  90.7470 14.98329050 78827,6950.196,96.107,574.498,569.624,0.0
55292.0,STARLINK-5325,PAYLOAD,2024-06-19 10:26:09,14.98329324,0.0003503,69.9986,168.4679,269.2618,90.8139,1.8172e-05,1.24e-06,0.0,0 STARLINK-5325,1 55292U 23010Z   24171.43483355  .00000124  00000-0  18172-4 0  9999,2 55292  69.9986 168.4679 0003503 269.2618  90.8139 14.98329324 79166,6950.195,96.107,574.495,569.625,0.0
55292.0,STARLINK-5325,PAYLOAD,2024-06-19 16:50:41,14.98329575,0.0003504,69.9986,167.7946,269.4099,90.6659,7.6015e-06,-2e-08,0.0,0 STARLINK-5325,1 55292U 23010Z   24171.70187362 -.00000002  00000-0  76015-5 0  9995,2 55292  69.9986 167.7946 0003504 269.4099  90.6659 14.98329575 79209,6950.194,96.107,574.495,569.624,0.0
55292.0,STARLINK-5325,PAYLOAD,2024-06-20 05:39:46,14.98330747,0.0003497,69.9987,166.4482,268.4786,91.5972,2.2695e-07,-9e-07,0.0,0 STARLINK-5325,1 55292U 23010Z   24172.23595277 -.00000090  00000-0  22695-6 0  9995,2 55292  69.9987 166.4482 0003497 268.4786  91.5972 14.98330747 78978,6950.191,96.107,574.486,569.625,0.0
55292.0,STARLINK-5325,PAYLOAD,2024-06-20 10:28:10,14.983307,0.0003493,69.9987,165.9433,268.5312,91.5447,1.4907e-07,-9.1e-07,0.0,0 STARLINK-5325,1 55292U 23010Z   24172.43623269 -.00000091  00000-0  14907-6 0  9998,2 55292  69.9987 165.9433 0003493 268.5312  91.5447 14.98330700 79315,6950.191,96.107,574.483,569.628,0.0
55292.0,STARLINK-5325,PAYLOAD,2024-06-20 16:52:42,14.98330679,0.0003494,69.9988,165.2699,268.6079,91.468,1.1685e-05,4.6e-07,0.0,0 STARLINK-5325,1 55292U 23010Z   24172.70327226  .00000046  00000-0  11685-4 0  9999,2 55292  69.9988 165.2699 0003494 268.6079  91.4680 14.98330679 79352,6950.191,96.107,574.484,569.627,0.0
55292.0,STARLINK-5325,PAYLOAD,2024-06-21 08:54:03,14.98329278,0.0003483,69.9989,163.587,268.4436,91.6324,2.6748e-05,2.26e-06,0.0,0 STARLINK-5325,1 55292U 23010Z   24173.37087306  .00000226  00000-0  26748-4 0  9991,2 55292  69.9989 163.5870 0003483 268.4436  91.6324 14.98329278 79145,6950.195,96.107,574.481,569.639,0.0
55292.0,STARLINK-5325,PAYLOAD,2024-06-22 08:56:04,14.98329359,0.0003473,69.9989,161.0623,268.309,91.7671,2.0562e-05,1.52e-06,0.0,0 STARLINK-5325,1 55292U 23010Z   24174.37227365  .00000152  00000-0  20562-4 0  9999,2 55292  69.9989 161.0623 0003473 268.3090  91.7671 14.98329359 79290,6950.195,96.107,574.474,569.646,0.0
55292.0,STARLINK-5325,PAYLOAD,2024-06-23 08:58:05,14.98332475,0.0003477,69.999,158.5373,268.6361,91.4399,5.0436e-05,5.09e-06,0.0,0 STARLINK-5325,1 55292U 23010Z   24175.37367049  .00000509  00000-0  50436-4 0  9993,2 55292  69.9990 158.5373 0003477 268.6361  91.4399 14.98332475 79447,6950.185,96.107,574.467,569.634,0.0
55292.0,STARLINK-5325,PAYLOAD,2024-06-24 09:00:03,14.9836268,0.0003674,69.9995,156.0143,258.1901,101.8846,0.00036402,4.257e-05,0.0,0 STARLINK-5325,1 55292U 23010Z   24176.37503830  .00004257  00000-0  36402-3 0  9994,2 55292  69.9995 156.0143 0003674 258.1901 101.8846 14.98362680 79593,6950.092,96.105,574.51,569.403,0.0
55292.0,STARLINK-5325,PAYLOAD,2024-06-25 04:13:42,14.98333003,0.0003432,69.9991,153.9939,260.6467,99.4304,-2.7682e-05,-4.23e-06,0.0,0 STARLINK-5325,1 55292U 23010Z   24177.17618310 -.00000423  00000-0 -27682-4 0  9997,2 55292  69.9991 153.9939 0003432 260.6467  99.4304 14.98333003 79717,6950.184,96.107,574.434,569.663,0.0
55292.0,STARLINK-5325,PAYLOAD,2024-06-25 07:25:58,14.98329456,0.0003746,69.9986,153.6567,268.1485,91.9245,-6.9399e-05,-9.21e-06,0.0,0 STARLINK-5325,1 55292U 23010Z   24177.30970668 -.00000921  00000-0 -69399-4 0  9993,2 55292  69.9986 153.6567 0003746 268.1485  91.9245 14.98329456 80042,6950.195,96.107,574.663,569.456,0.0
55292.0,STARLINK-5325,PAYLOAD,2024-06-26 04:15:43,14.98327374,0.00032,69.999,151.4681,256.5891,103.4911,-0.00010159,-1.305e-05,0.0,0 STARLINK-5325,1 55292U 23010Z   24178.17759061 -.00001305  00000-0 -10159-3 0  9997,2 55292  69.9990 151.4681 0003200 256.5891 103.4911 14.98327374 79861,6950.201,96.107,574.29,569.842,0.0
55292.0,STARLINK-5325,PAYLOAD,2024-06-26 07:27:59,14.98330241,0.0003248,69.9988,151.1308,260.3908,99.6884,-7.7724e-05,-1.02e-05,0.0,0 STARLINK-5325,1 55292U 23010Z   24178.31110822 -.00001020  00000-0 -77724-4 0  9995,2 55292  69.9988 151.1308 0003248 260.3908  99.6884 14.98330241 80195,6950.192,96.107,574.315,569.8,0.0
55292.0,STARLINK-5325,PAYLOAD,2024-06-27 04:17:44,14.98323275,0.0003379,69.9991,148.9426,267.1636,92.9136,9.5782e-05,1.05e-05,0.0,0 STARLINK-5325,1 55292U 23010Z   24179.17898842  .00001050  00000-0  95782-4 0  9990,2 55292  69.9991 148.9426 0003379 267.1636  92.9136 14.98323275 80018,6950.214,96.107,574.427,569.73,0.0
55292.0,STARLINK-5325,PAYLOAD,2024-06-27 15:30:41,14.98325248,0.0003453,69.999,147.7644,269.5269,90.5495,9.936e-05,1.093e-05,0.0,0 STARLINK-5325,1 55292U 23010Z   24179.64630855  .00001093  00000-0  99360-4 0  9993,2 55292  69.9990 147.7644 0003453 269.5269  90.5495 14.98325248 80392,6950.208,96.107,574.472,569.673,0.0
55292.0,STARLINK-5325,PAYLOAD,2024-06-28 04:19:45,14.98326737,0.000341,69.999,146.4179,268.9461,91.1307,6.1998e-05,6.47e-06,0.0,0 STARLINK-5325,1 55292U 23010Z   24180.18039083  .00000647  00000-0  61998-4 0  9990,2 55292  69.9990 146.4179 0003410 268.9461  91.1307 14.98326737 80169,6950.203,96.107,574.438,569.698,0.0
55292.0,STARLINK-5325,PAYLOAD,2024-06-28 07:32:01,14.98330038,0.0003367,69.9992,146.0815,269.4057,90.6716,9.7456e-05,1.07e-05,0.0,0 STARLINK-5325,1 55292U 23010Z   24180.31390810  .00001070  00000-0  97456-4 0  9992,2 55292  69.9992 146.0815 0003367 269.4057  90.6716 14.98330038 80495,6950.193,96.107,574.398,569.718,0.0
55292.0,STARLINK-5325,PAYLOAD,2024-06-28 21:57:13,14.9833632,0.0003284,69.9994,144.566,268.9121,91.1661,8.042e-05,8.67e-06,0.0,0 STARLINK-5325,1 55292U 23010Z   24180.91474427  .00000867  00000-0  80420-4 0  9991,2 55292  69.9994 144.5660 0003284 268.9121  91.1661 14.98336320 80273,6950.173,96.107,574.321,569.756,0.0
55292.0,STARLINK-5325,PAYLOAD,2024-06-29 07:34:01,14.98342994,0.0003289,69.9994,143.5565,269.4981,90.5801,0.00015014,1.699e-05,0.0,0 STARLINK-5325,1 55292U 23010Z   24181.31529680  .00001699  00000-0  15014-3 0  9998,2 55292  69.9994 143.5565 0003289 269.4981  90.5801 14.98342994 80331,6950.153,96.106,574.304,569.732,0.0
55292.0,STARLINK-5325,PAYLOAD,2024-06-29 20:23:07,14.98329285,0.0002688,70.0004,142.213,283.6418,76.4441,8.7728e-05,9.54e-06,0.0,0 STARLINK-5325,1 55292U 23010Z   24181.84938847  .00000954  00000-0  87728-4 0  9990,2 55292  70.0004 142.2130 0002688 283.6418  76.4441 14.98329285 80415,6950.195,96.107,573.928,570.192,0.0
55292.0,STARLINK-5325,PAYLOAD,2024-06-29 21:59:15,14.98323151,0.0003346,69.9992,142.0418,268.2898,91.7877,-2.3853e-05,-3.78e-06,0.0,0 STARLINK-5325,1 55292U 23010Z   24181.91615400 -.00000378  00000-0 -23853-4 0  9996,2 55292  69.9992 142.0418 0003346 268.2898  91.7877 14.98323151 80732,6950.214,96.107,574.405,569.754,0.0
55292.0,STARLINK-5325,PAYLOAD,2024-06-30 04:23:47,14.98325615,0.0003217,69.9992,141.3687,269.9674,90.1116,-3.5903e-05,-5.21e-06,0.0,0 STARLINK-5325,1 55292U 23010Z   24182.18319422 -.00000521  00000-0 -35903-4 0  9990,2 55292  69.9992 141.3687 0003217 269.9674  90.1116 14.98325615 80465,6950.206,96.107,574.307,569.836,0.0
55292.0,STARLINK-5325,PAYLOAD,2024-06-30 14:00:36,14.98330003,0.0003208,69.9993,140.359,268.8213,91.2578,2.3635e-06,-6.5e-07,0.0,0 STARLINK-5325,1 55292U 23010Z   24182.58375121 -.00000065  00000-0  23635-5 0  9994,2 55292  69.9993 140.3590 0003208 268.8213  91.2578 14.98330003 80837,6950.193,96.107,574.288,569.828,0.0
55292.0,STARLINK-5325,PAYLOAD,2024-06-30 22:01:16,14.98334636,0.000323,69.9991,139.5168,269.6992,90.3796,-3.1057e-05,-4.64e-06,0.0,0 STARLINK-5325,1 55292U 23010Z   24182.91754915 -.00000464  00000-0 -31057-4 0  9993,2 55292  69.9991 139.5168 0003230 269.6992  90.3796 14.98334636 80887,6950.179,96.107,574.288,569.799,0.0
